{
  "type": "FeatureCollection",
  "features": [
    {
      "type": "Feature",
      "properties": {
        "norad_id": 30013,
        "name": "FENGYUN 1C DEB",
        "group": "fengyun-1c-debris",
        "lat": -24.459426363575524,
        "lon": -171.45917512021555,
        "alt_km": 1035.3096270930955,
        "timestamp": "2025-12-19T08:58:49.611400+00:00",
        "meta_object_name": "FENGYUN 1C DEB",
        "meta_object_id": "1999-025MN",
        "meta_epoch": "2025-12-18T13:41:17.833056",
        "meta_mean_motion": 13.87829145,
        "meta_eccentricity": 0.0128052,
        "meta_inclination": 99.5797,
        "meta_ra_of_asc_node": 12.1221,
        "meta_arg_of_pericenter": 28.5574,
        "meta_mean_anomaly": 122.1217,
        "meta_ephemeris_type": 0,
        "meta_classification_type": "U",
        "meta_norad_cat_id": 30013,
        "meta_element_set_no": 999,
        "meta_rev_at_epoch": 95762,
        "meta_bstar": 0.00022170713,
        "meta_mean_motion_dot": 2.34e-06,
        "meta_mean_motion_ddot": 0,
        "tle_line1": "1 30013U 99025MN  25352.57034529  .00000234  00000+0  22171-3 0  9998",
        "tle_line2": "2 30013  99.5797  12.1221 0128052  28.5574 122.1217 13.87829145957626"
      },
      "geometry": {
        "type": "Point",
        "coordinates": [
          -171.45917512021555,
          -24.459426363575524
        ]
      }
    },
    {
      "type": "Feature",
      "properties": {
        "norad_id": 30015,
        "name": "FENGYUN 1C DEB",
        "group": "fengyun-1c-debris",
        "lat": 3.2134036703594893,
        "lon": -3.863733050053031,
        "alt_km": 797.460905906968,
        "timestamp": "2025-12-19T08:58:49.611410+00:00",
        "meta_object_name": "FENGYUN 1C DEB",
        "meta_object_id": "1999-025MQ",
        "meta_epoch": "2025-12-18T23:10:58.352160",
        "meta_mean_motion": 14.3081661,
        "meta_eccentricity": 0.00386513,
        "meta_inclination": 99.2282,
        "meta_ra_of_asc_node": 356.2262,
        "meta_arg_of_pericenter": 107.2271,
        "meta_mean_anomaly": 314.9762,
        "meta_ephemeris_type": 0,
        "meta_classification_type": "U",
        "meta_norad_cat_id": 30015,
        "meta_element_set_no": 999,
        "meta_rev_at_epoch": 98262,
        "meta_bstar": 0.00043523087,
        "meta_mean_motion_dot": 1.101e-05,
        "meta_mean_motion_ddot": 0,
        "tle_line1": "1 30015U 99025MQ  25352.96595315  .00001101  00000+0  43523-3 0  9996",
        "tle_line2": "2 30015  99.2282 356.2262 0038651 107.2271 314.9762 14.30816610982621"
      },
      "geometry": {
        "type": "Point",
        "coordinates": [
          -3.863733050053031,
          3.2134036703594893
        ]
      }
    },
    {
      "type": "Feature",
      "properties": {
        "norad_id": 30016,
        "name": "FENGYUN 1C DEB",
        "group": "fengyun-1c-debris",
        "lat": -11.276741315436967,
        "lon": -175.75353342639687,
        "alt_km": 669.9958760566169,
        "timestamp": "2025-12-19T08:58:49.611420+00:00",
        "meta_object_name": "FENGYUN 1C DEB",
        "meta_object_id": "1999-025MR",
        "meta_epoch": "2025-12-18T14:49:40.614816",
        "meta_mean_motion": 14.78659171,
        "meta_eccentricity": 0.0046457,
        "meta_inclination": 98.9045,
        "meta_ra_of_asc_node": 5.2018,
        "meta_arg_of_pericenter": 22.8478,
        "meta_mean_anomaly": 104.5174,
        "meta_ephemeris_type": 0,
        "meta_classification_type": "U",
        "meta_norad_cat_id": 30016,
        "meta_element_set_no": 999,
        "meta_rev_at_epoch": 99540,
        "meta_bstar": 0.0014477216,
        "meta_mean_motion_dot": 0.00010753,
        "meta_mean_motion_ddot": 0,
        "tle_line1": "1 30016U 99025MR  25352.61783119  .00010753  00000+0  14477-2 0  9998",
        "tle_line2": "2 30016  98.9045   5.2018 0046457  22.8478 104.5174 14.78659171995408"
      },
      "geometry": {
        "type": "Point",
        "coordinates": [
          -175.75353342639687,
          -11.276741315436967
        ]
      }
    },
    {
      "type": "Feature",
      "properties": {
        "norad_id": 30017,
        "name": "FENGYUN 1C DEB",
        "group": "fengyun-1c-debris",
        "lat": -78.01443189194225,
        "lon": 84.88949612388947,
        "alt_km": 779.2891298487812,
        "timestamp": "2025-12-19T08:58:49.611430+00:00",
        "meta_object_name": "FENGYUN 1C DEB",
        "meta_object_id": "1999-025MS",
        "meta_epoch": "2025-12-18T02:08:34.045152",
        "meta_mean_motion": 14.61208352,
        "meta_eccentricity": 0.02177366,
        "meta_inclination": 98.7541,
        "meta_ra_of_asc_node": 36.9914,
        "meta_arg_of_pericenter": 158.6337,
        "meta_mean_anomaly": 202.4127,
        "meta_ephemeris_type": 0,
        "meta_classification_type": "U",
        "meta_norad_cat_id": 30017,
        "meta_element_set_no": 999,
        "meta_rev_at_epoch": 522,
        "meta_bstar": 0.00013019756,
        "meta_mean_motion_dot": 8.32e-06,
        "meta_mean_motion_ddot": 0,
        "tle_line1": "1 30017U 99025MS  25352.08928293  .00000832  00000+0  13020-3 0  9995",
        "tle_line2": "2 30017  98.7541  36.9914 0217736 158.6337 202.4127 14.61208352  5227"
      },
      "geometry": {
        "type": "Point",
        "coordinates": [
          84.88949612388947,
          -78.01443189194225
        ]
      }
    },
    {
      "type": "Feature",
      "properties": {
        "norad_id": 30018,
        "name": "FENGYUN 1C DEB",
        "group": "fengyun-1c-debris",
        "lat": -56.101801332757404,
        "lon": -116.7276815666246,
        "alt_km": 618.8903076108172,
        "timestamp": "2025-12-19T08:58:49.611440+00:00",
        "meta_object_name": "FENGYUN 1C DEB",
        "meta_object_id": "1999-025MT",
        "meta_epoch": "2025-12-18T19:26:18.080736",
        "meta_mean_motion": 14.73247098,
        "meta_eccentricity": 0.01168591,
        "meta_inclination": 98.7564,
        "meta_ra_of_asc_node": 75.925,
        "meta_arg_of_pericenter": 176.4565,
        "meta_mean_anomaly": 308.5496,
        "meta_ephemeris_type": 0,
        "meta_classification_type": "U",
        "meta_norad_cat_id": 30018,
        "meta_element_set_no": 999,
        "meta_rev_at_epoch": 526,
        "meta_bstar": 0.00063854179,
        "meta_mean_motion_dot": 4.535e-05,
        "meta_mean_motion_ddot": 0,
        "tle_line1": "1 30018U 99025MT  25352.80993149  .00004535  00000+0  63854-3 0  9992",
        "tle_line2": "2 30018  98.7564  75.9250 0116859 176.4565 308.5496 14.73247098  5268"
      },
      "geometry": {
        "type": "Point",
        "coordinates": [
          -116.7276815666246,
          -56.101801332757404
        ]
      }
    },
    {
      "type": "Feature",
      "properties": {
        "norad_id": 30020,
        "name": "FENGYUN 1C DEB",
        "group": "fengyun-1c-debris",
        "lat": 44.624498297366216,
        "lon": -174.13940328772796,
        "alt_km": 854.8867086179307,
        "timestamp": "2025-12-19T08:58:49.611450+00:00",
        "meta_object_name": "FENGYUN 1C DEB",
        "meta_object_id": "1999-025MV",
        "meta_epoch": "2025-12-18T12:37:13.694016",
        "meta_mean_motion": 14.04476378,
        "meta_eccentricity": 0.01840303,
        "meta_inclination": 98.847,
        "meta_ra_of_asc_node": 356.1912,
        "meta_arg_of_pericenter": 54.3728,
        "meta_mean_anomaly": 111.2592,
        "meta_ephemeris_type": 0,
        "meta_classification_type": "U",
        "meta_norad_cat_id": 30020,
        "meta_element_set_no": 999,
        "meta_rev_at_epoch": 96739,
        "meta_bstar": 0.00032202327,
        "meta_mean_motion_dot": 5.55e-06,
        "meta_mean_motion_ddot": 0,
        "tle_line1": "1 30020U 99025MV  25352.52585294  .00000555  00000+0  32202-3 0  9993",
        "tle_line2": "2 30020  98.8470 356.1912 0184030  54.3728 111.2592 14.04476378967394"
      },
      "geometry": {
        "type": "Point",
        "coordinates": [
          -174.13940328772796,
          44.624498297366216
        ]
      }
    },
    {
      "type": "Feature",
      "properties": {
        "norad_id": 30021,
        "name": "FENGYUN 1C DEB",
        "group": "fengyun-1c-debris",
        "lat": -54.06201684413554,
        "lon": -2.8820734479438164,
        "alt_km": 841.9641962639698,
        "timestamp": "2025-12-19T08:58:49.611460+00:00",
        "meta_object_name": "FENGYUN 1C DEB",
        "meta_object_id": "1999-025MW",
        "meta_epoch": "2025-12-18T23:15:07.173792",
        "meta_mean_motion": 14.04895202,
        "meta_eccentricity": 0.00717932,
        "meta_inclination": 98.8357,
        "meta_ra_of_asc_node": 344.3326,
        "meta_arg_of_pericenter": 269.4637,
        "meta_mean_anomaly": 146.1113,
        "meta_ephemeris_type": 0,
        "meta_classification_type": "U",
        "meta_norad_cat_id": 30021,
        "meta_element_set_no": 999,
        "meta_rev_at_epoch": 97019,
        "meta_bstar": 3.6986398e-05,
        "meta_mean_motion_dot": 1.7e-07,
        "meta_mean_motion_ddot": 0,
        "tle_line1": "1 30021U 99025MW  25352.96883303  .00000017  00000+0  36986-4 0  9991",
        "tle_line2": "2 30021  98.8357 344.3326 0071793 269.4637 146.1113 14.04895202970195"
      },
      "geometry": {
        "type": "Point",
        "coordinates": [
          -2.8820734479438164,
          -54.06201684413554
        ]
      }
    }
  ]
}